OBJECT_NAME,OBJECT_ID,EPOCH,MEAN_MOTION,ECCENTRICITY,INCLINATION,RA_OF_ASC_NODE,ARG_OF_PERICENTER,MEAN_ANOMALY,EPHEMERIS_TYPE,CLASSIFICATION_TYPE,NORAD_CAT_ID,ELEMENT_SET_NO,REV_AT_EPOCH,BSTAR,MEAN_MOTION_DOT,MEAN_MOTION_DDOT
COSMOS 2058,1990-010A,2026-07-17T12:14:07.896768,15.12164129,.00080984,82.4674,279.4491,240.0619,119.9808,0,U,20465,999,96185,.10176119E-3,.1785E-4,0
SL-14 R/B,1990-010B,2026-07-17T14:01:41.967264,14.83663768,.00185157,82.5037,145.3991,228.8156,131.1463,0,U,20466,999,94774,.18649918E-4,.178E-5,0
SL-14 R/B,1990-018B,2026-07-17T04:29:45.762144,14.82234781,.00168761,82.5216,102.0682,30.6202,329.5993,0,U,20511,999,94176,.22025754E-4,.2E-5,0
HST,1990-037B,2026-07-17T07:48:39.272256,15.31073717,.00021871,28.4720,234.5376,124.4293,235.6510,0,U,20580,999,79319,.96172502E-4,.3201E-4,0
SL-16 R/B,1990-046B,2026-07-16T23:48:24.813504,14.15025808,.00123596,70.9988,26.3499,111.1432,249.1013,0,U,20625,999,86668,.170397E-3,.283E-5,0
COSMOS 2084,1990-055A,2026-07-17T12:50:29.458752,15.06228084,.00083766,62.7880,252.4997,320.4750,39.5739,0,U,20663,999,95587,.60238859E-4,.684E-5,0
SL-6 R/B(2),1990-055D,2026-07-17T08:47:51.743040,15.04093089,.00454678,62.7806,172.6708,9.2929,350.9001,0,U,20666,999,95769,.8330425E-4,.974E-5,0
SL-8 R/B,1990-078B,2026-07-17T13:17:17.942496,14.93615374,.03431849,82.9036,134.1758,295.5103,61.0995,0,U,20775,999,82865,.21557425E-3,.761E-4,0
SL-8 R/B,1991-006B,2026-07-17T13:27:44.163648,13.77509537,.00233046,82.9405,73.4355,34.1548,340.0682,0,U,21088,999,78195,.65415231E-4,.81E-6,0
OKEAN-3,1991-039A,2026-07-17T13:57:48.655296,15.05442499,.00126199,82.5145,210.9035,245.5169,114.4743,0,U,21397,999,88457,.11780839E-3,.1721E-4,0
COSMOS 2151,1991-042A,2026-07-17T14:27:25.902432,15.00516748,.0011728,82.4983,318.3279,347.1841,12.9083,0,U,21422,999,88267,.68645686E-4,.893E-5,0
SL-14 R/B,1991-042B,2026-07-17T11:17:18.835296,14.81918702,.00171927,82.4931,98.4980,169.4660,190.6918,0,U,21423,999,87229,.18809127E-4,.173E-5,0
ERS-1,1991-050A,2026-07-17T01:16:14.261376,14.39534196,.00320231,98.7795,219.4803,176.3094,183.8335,0,U,21574,999,83434,.71316331E-4,.177E-5,0
ARIANE 40 R/B,1991-050F,2026-07-17T13:25:50.262528,14.42972584,.00040637,98.1861,245.7910,56.2498,303.9080,0,U,21610,999,83772,.42142324E-4,.99E-6,0
INTERCOSMOS 25,1991-086A,2026-07-17T03:45:45.745344,12.12241021,.14846769,82.6004,231.6740,197.6921,156.6658,0,U,21819,999,51237,.15423351E-4,.94E-6,0
SL-8 R/B,1992-008B,2026-07-17T09:27:50.751360,13.75984140,.00357748,82.9273,171.3284,130.6415,21.8464,0,U,21876,999,72725,.82152289E-4,.96E-6,0
SL-8 R/B,1992-020B,2026-07-17T14:21:05.542848,13.75550049,.00278652,82.9279,57.2649,296.5120,92.2018,0,U,21938,999,71899,-.16759627E-4,-.1E-7,0
USA 81,1992-023A,2026-07-17T14:13:01.600896,14.32405338,.00018848,85.0049,56.4542,65.5660,294.5729,0,U,21949,999,11338,.26663071E-4,.92E-6,0
COSMOS 2219,1992-076A,2026-07-17T11:11:13.498080,14.14107866,.00184032,71.0610,106.7765,354.0585,6.0316,0,U,22219,999,73672,-.10346583E-3,-.244E-5,0
SL-16 R/B,1992-076B,2026-07-17T12:27:08.834400,14.16877988,.00150382,71.0003,274.8867,259.2519,111.9309,0,U,22220,999,74022,.27519955E-4,.7E-7,0
COSMOS 2221,1992-080A,2026-07-17T07:02:31.852608,14.96607157,.00158306,82.5047,154.9203,113.8330,246.4553,0,U,22236,999,80017,.70662979E-4,.833E-5,0
SL-16 R/B,1992-093B,2026-07-17T03:15:15.033024,14.15465033,.00022087,71.0215,92.5220,129.3844,230.7475,0,U,22285,999,73147,-.10802004E-3,-.259E-5,0
COSMOS 2228,1992-094A,2026-07-17T14:54:56.717856,14.97679516,.00164897,82.5187,112.8915,220.4222,139.5777,0,U,22286,999,79550,.65815082E-4,.799E-5,0
SL-16 R/B,1993-016B,2026-07-17T06:14:40.889472,14.15313778,.0008758,71.0086,303.0435,134.2775,225.9068,0,U,22566,999,72050,.16631897E-3,.276E-5,0
COSMOS 2242,1993-024A,2026-07-17T14:16:41.381760,14.96988569,.00148007,82.5199,142.4511,223.8026,136.2024,0,U,22626,999,79982,.70650235E-4,.84E-5,0
SL-16 R/B,1993-059B,2026-07-17T09:58:57.113184,14.17249386,.00167787,70.9901,97.5577,5.2623,354.8674,0,U,22803,999,69791,.32202066E-4,.17E-6,0
ARIANE 40 R/B,1993-061H,2026-07-17T03:52:39.635904,14.32918978,.00095188,98.4805,264.3939,259.2192,100.7921,0,U,22830,999,71264,.40553867E-4,.68E-6,0
COSMOS 2278,1994-023A,2026-07-17T14:05:16.196064,14.14393681,.0009513,71.0519,263.3217,201.9493,158.1223,0,U,23087,999,66317,.73587916E-4,.94E-6,0
SL-16 R/B,1994-023B,2026-07-17T08:42:51.860736,14.15025397,.00013624,70.9986,158.5589,119.7738,240.3520,0,U,23088,999,66443,.13635168E-3,.216E-5,0
SL-16 R/B,1994-074B,2026-07-17T12:46:43.240224,14.79525447,.00073407,97.6986,223.9877,147.4090,13.5852,0,U,23343,999,70644,.28704993E-4,.166E-5,0
