COSMOS 2058             
1 20465U 90010A   26198.50981362  .00001785  00000+0  10176-3 0  9995
2 20465  82.4674 279.4491 0008098 240.0619 119.9808 15.12164129961850
SL-14 R/B               
1 20466U 90010B   26198.58451351  .00000178  00000+0  18650-4 0  9995
2 20466  82.5037 145.3991 0018515 228.8156 131.1463 14.83663768947741
SL-14 R/B               
1 20511U 90018B   26198.18733521  .00000200  00000+0  22026-4 0  9990
2 20511  82.5216 102.0682 0016876  30.6202 329.5993 14.82234781941762
HST                     
1 20580U 90037B   26198.32545454  .00003201  00000+0  96173-4 0  9997
2 20580  28.4720 234.5376 0002187 124.4293 235.6510 15.31073717793199
SL-16 R/B               
1 20625U 90046B   26197.99195386  .00000283  00000+0  17040-3 0  9996
2 20625  70.9988  26.3499 0012359 111.1432 249.1013 14.15025808866682
COSMOS 2084             
1 20663U 90055A   26198.53506318  .00000684  00000+0  60239-4 0  9994
2 20663  62.7880 252.4997 0008376 320.4750  39.5739 15.06228084955879
SL-6 R/B(2)             
1 20666U 90055D   26198.36657110  .00000974  00000+0  83304-4 0  9995
2 20666  62.7806 172.6708 0045467   9.2929 350.9001 15.04093089957692
SL-8 R/B                
1 20775U 90078B   26198.55367989  .00007610  00000+0  21557-3 0  9999
2 20775  82.9036 134.1758 0343184 295.5103  61.0995 14.93615374828650
SL-8 R/B                
1 21088U 91006B   26198.56092782  .00000081  00000+0  65415-4 0  9993
2 21088  82.9405  73.4355 0023304  34.1548 340.0682 13.77509537781953
OKEAN-3                 
1 21397U 91039A   26198.58181314  .00001721  00000+0  11781-3 0  9992
2 21397  82.5145 210.9035 0012619 245.5169 114.4743 15.05442499884579
COSMOS 2151             
1 21422U 91042A   26198.60238313  .00000893  00000+0  68646-4 0  9992
2 21422  82.4983 318.3279 0011728 347.1841  12.9083 15.00516748882678
SL-14 R/B               
1 21423U 91042B   26198.47035689  .00000173  00000+0  18809-4 0  9996
2 21423  82.4931  98.4980 0017192 169.4660 190.6918 14.81918702872294
ERS-1                   
1 21574U 91050A   26198.05294284  .00000177  00000+0  71316-4 0  9990
2 21574  98.7795 219.4803 0032023 176.3094 183.8335 14.39534196834341
ARIANE 40 R/B           
1 21610U 91050F   26198.55960952  .00000099  00000+0  42142-4 0  9996
2 21610  98.1861 245.7910 0004063  56.2498 303.9080 14.42972584837726
INTERCOSMOS 25          
1 21819U 91086A   26198.15677946  .00000094  00000+0  15423-4 0  9997
2 21819  82.6004 231.6740 1484676 197.6921 156.6658 12.12241021512378
SL-8 R/B                
1 21876U 92008B   26198.39433740  .00000096  00000+0  82152-4 0  9998
2 21876  82.9273 171.3284 0035774 130.6415  21.8464 13.75984140727259
SL-8 R/B                
1 21938U 92020B   26198.59798082 -.00000001  00000+0 -16760-4 0  9996
2 21938  82.9279  57.2649 0027865 296.5120  92.2018 13.75550049718993
USA 81                  
1 21949U 92023A   26198.59237964  .00000092  00000+0  26663-4 0  9999
2 21949  85.0049  56.4542 0001884  65.5660 294.5729 14.32405338113385
COSMOS 2219             
1 22219U 92076A   26198.46612845 -.00000244  00000+0 -10347-3 0  9991
2 22219  71.0610 106.7765 0018403 354.0585   6.0316 14.14107866736720
SL-16 R/B               
1 22220U 92076B   26198.51885225  .00000007  00000+0  27520-4 0  9990
2 22220  71.0003 274.8867 0015038 259.2519 111.9309 14.16877988740221
COSMOS 2221             
1 22236U 92080A   26198.29342422  .00000833  00000+0  70663-4 0  9997
2 22236  82.5047 154.9203 0015830 113.8330 246.4553 14.96607157800174
SL-16 R/B               
1 22285U 92093B   26198.13559066 -.00000259  00000+0 -10802-3 0  9994
2 22285  71.0215  92.5220 0002208 129.3844 230.7475 14.15465033731472
COSMOS 2228             
1 22286U 92094A   26198.62148979  .00000799  00000+0  65815-4 0  9999
2 22286  82.5187 112.8915 0016489 220.4222 139.5777 14.97679516795502
SL-16 R/B               
1 22566U 93016B   26198.26019548  .00000276  00000+0  16632-3 0  9996
2 22566  71.0086 303.0435 0008758 134.2775 225.9068 14.15313778720506
COSMOS 2242             
1 22626U 93024A   26198.59492340  .00000840  00000+0  70650-4 0  9991
2 22626  82.5199 142.4511 0014800 223.8026 136.2024 14.96988569799826
SL-16 R/B               
1 22803U 93059B   26198.41593881  .00000017  00000+0  32202-4 0  9996
2 22803  70.9901  97.5577 0016778   5.2623 354.8674 14.17249386697914
ARIANE 40 R/B           
1 22830U 93061H   26198.16156986  .00000068  00000+0  40554-4 0  9997
2 22830  98.4805 264.3939 0009518 259.2192 100.7921 14.32918978712642
COSMOS 2278             
1 23087U 94023A   26198.58699301  .00000094  00000+0  73588-4 0  9992
2 23087  71.0519 263.3217 0009513 201.9493 158.1223 14.14393681663170
SL-16 R/B               
1 23088U 94023B   26198.36310024  .00000216  00000+0  13635-3 0  9993
2 23088  70.9986 158.5589 0001362 119.7738 240.3520 14.15025397664437
SL-16 R/B               
1 23343U 94074B   26198.53244491  .00000166  00000+0  28705-4 0  9995
2 23343  97.6986 223.9877 0007340 147.4090  13.5852 14.79525447706442
